NORAD_CAT_ID,OBJECT_NAME,OBJECT_TYPE,EPOCH,MEAN_MOTION,ECCENTRICITY,INCLINATION,RA_OF_ASC_NODE,ARG_OF_PERICENTER,MEAN_ANOMALY,BSTAR,MEAN_MOTION_DOT,MEAN_MOTION_DDOT,TLE_LINE0,TLE_LINE1,TLE_LINE2,SEMIMAJOR_AXIS,PERIOD,APOGEE,PERIGEE,DECAYED
52604.0,STARLINK-4013,PAYLOAD,2022-10-10 08:22:20,15.08838849,0.0002081,53.2167,114.1467,47.7154,312.4015,6.238399999999999e-05,7.05e-06,0.0,0 STARLINK-4013,1 52604U 22052G   22283.34884278  .00000705  00000-0  62384-4 0  9998,2 52604  53.2167 114.1467 0002081  47.7154 312.4015 15.08838849 22707,6917.884,95.438,541.189,538.309,0.0
52604.0,STARLINK-4013,PAYLOAD,2022-10-10 14:43:52,15.08831783,0.0001962,53.2169,112.9573,43.4473,316.6673,4.9915e-05,5.06e-06,0.0,0 STARLINK-4013,1 52604U 22052G   22283.61380738  .00000506  00000-0  49915-4 0  9994,2 52604  53.2169 112.9573 0001962  43.4473 316.6673 15.08831783 22747,6917.906,95.438,541.128,538.413,0.0
52604.0,STARLINK-4013,PAYLOAD,2022-10-11 08:13:07,15.0883764,0.0001554999999999,53.2178,109.6851,44.2618,315.8499,-2.1645e-05,-6.32e-06,0.0,0 STARLINK-4013,1 52604U 22052G   22284.34244652 -.00000632  00000-0 -21645-4 0  9991,2 52604  53.2178 109.6851 0001555  44.2618 315.8499 15.08837640 23226,6917.888000000001,95.438,540.828,538.677,0.0
52604.0,STARLINK-4013,PAYLOAD,2022-10-11 12:59:17,15.08835227,0.0001559,53.2177,108.7932,50.7438,309.3692,-0.00010087,-1.893e-05,0.0,0 STARLINK-4013,1 52604U 22052G   22284.54117289 -.00001893  00000-0 -10087-3 0  9995,2 52604  53.2177 108.7932 0001559  50.7438 309.3692 15.08835227 22884,6917.895,95.438,540.8380000000002,538.681,0.0
52604.0,STARLINK-4013,PAYLOAD,2022-10-11 14:34:41,15.0882476,0.0001981,53.2169,108.497,40.6159,319.4981,-0.00013159,-2.381e-05,0.0,0 STARLINK-4013,1 52604U 22052G   22284.60742067 -.00002381  00000-0 -13159-3 0  9996,2 52604  53.2169 108.4970 0001981  40.6159 319.4981 15.08824760 22895,6917.927,95.439,541.1619999999998,538.422,0.0
52604.0,STARLINK-4013,PAYLOAD,2022-10-12 17:36:14,15.08832553,0.0002508999999999,53.2187,103.4455,25.7482,334.3635,-3.4567000000000007e-06,-3.43e-06,0.0,0 STARLINK-4013,1 52604U 22052G   22285.73349873 -.00000343  00000-0 -34567-5 0  9993,2 52604  53.2187 103.4455 0002509  25.7482 334.3635 15.08832553 23430,6917.903,95.438,541.504,538.0319999999998,0.0
52604.0,STARLINK-4013,PAYLOAD,2022-10-12 20:47:00,15.08839358,0.0001908,53.2178,102.8474,40.1349,319.9784,5.0307e-06,-2.08e-06,0.0,0 STARLINK-4013,1 52604U 22052G   22285.86597306 -.00000208  00000-0  50307-5 0  9992,2 52604  53.2178 102.8474 0001908  40.1349 319.9784 15.08839358 23084,6917.882,95.438,541.067,538.427,0.0
52604.0,STARLINK-4013,PAYLOAD,2022-10-12 23:57:46,15.08842898,0.0001811999999999,53.2178,102.252,43.0716,317.0418,4.1902e-05,3.79e-06,0.0,0 STARLINK-4013,1 52604U 22052G   22285.99844923  .00000379  00000-0  41902-4 0  9994,2 52604  53.2178 102.2520 0001812  43.0716 317.0418 15.08842898 23473,6917.871999999999,95.437,540.99,538.4830000000002,0.0
52604.0,STARLINK-4013,PAYLOAD,2022-10-13 12:40:52,15.08824759,0.0001908,53.2179,99.8732,49.0993,311.0164,0.00010969,1.457e-05,0.0,0 STARLINK-4013,1 52604U 22052G   22286.52838332  .00001457  00000-0  10969-3 0  9997,2 52604  53.2179  99.8732 0001908  49.0993 311.0164 15.08824759 23185,6917.927,95.439,541.112,538.472,0.0
52604.0,STARLINK-4013,PAYLOAD,2022-10-13 14:16:15,15.08826315,0.0001905,53.2178,99.5759,47.9308,312.1846,0.00011812,1.592e-05,0.0,0 STARLINK-4013,1 52604U 22052G   22286.59462254  .00001592  00000-0  11812-3 0  9998,2 52604  53.2178  99.5759 0001905  47.9308 312.1846 15.08826315 23565,6917.922,95.438,541.105,538.469,0.0
52604.0,STARLINK-4013,PAYLOAD,2022-10-13 19:02:24,15.08824052,0.0001936,53.2179,98.6837,42.4183,317.6959,0.00020885,3.036e-05,0.0,0 STARLINK-4013,1 52604U 22052G   22286.79333952  .00003036  00000-0  20885-3 0  9997,2 52604  53.2179  98.6837 0001936  42.4183 317.6959 15.08824052 23222,6917.929,95.439,541.133,538.455,0.0
52604.0,STARLINK-4013,PAYLOAD,2022-10-13 23:48:33,15.08837107,0.000195,53.2178,97.7917,42.0756,318.0385,0.00011295,1.51e-05,0.0,0 STARLINK-4013,1 52604U 22052G   22286.99205474  .00001510  00000-0  11295-3 0  9996,2 52604  53.2178  97.7917 0001950  42.0756 318.0385 15.08837107 23625,6917.889,95.438,541.1030000000002,538.405,0.0
52604.0,STARLINK-4013,PAYLOAD,2022-10-14 07:45:28,15.08849066,0.0002009999999999,53.2179,96.3053,40.3498,319.7643,6.1967e-05,6.98e-06,0.0,0 STARLINK-4013,1 52604U 22052G   22287.32325033  .00000698  00000-0  61967-4 0  9996,2 52604  53.2179  96.3053 0002010  40.3498 319.7643 15.08849066 23671,6917.853,95.437,541.1080000000002,538.327,0.0
52604.0,STARLINK-4013,PAYLOAD,2022-10-14 12:31:37,15.08853815,0.0001989,53.2178,95.413,41.7392,318.3752,8.5426e-05,1.072e-05,0.0,0 STARLINK-4013,1 52604U 22052G   22287.52196539  .00001072  00000-0  85426-4 0  9998,2 52604  53.2178  95.4130 0001989  41.7392 318.3752 15.08853815 23334,6917.8380000000025,95.437,541.0790000000002,538.327,0.0
52604.0,STARLINK-4013,PAYLOAD,2022-10-14 20:28:33,15.0884429,0.0001968,53.218,93.9257,43.7162,316.3986,2.3071e-05,7.9e-07,0.0,0 STARLINK-4013,1 52604U 22052G   22287.85317112  .00000079  00000-0  23071-4 0  9990,2 52604  53.2180  93.9257 0001968  43.7162 316.3986 15.08844290 23383,6917.8669999999975,95.437,541.094,538.371,0.0
52604.0,STARLINK-4013,PAYLOAD,2022-10-15 10:47:02,15.0883846,0.0002004,53.2179,91.2494,41.534,318.5804,-1.5928e-05,-5.42e-06,0.0,0 STARLINK-4013,1 52604U 22052G   22288.44933451 -.00000542  00000-0 -15928-4 0  9995,2 52604  53.2179  91.2494 0002004  41.5340 318.5804 15.08838460 23847,6917.885,95.438,541.136,538.364,0.0
52604.0,STARLINK-4013,PAYLOAD,2022-10-15 12:22:25,15.08838227,0.0001955999999999,53.2178,90.9519,41.1251,318.9888,2.7404e-05,1.48e-06,0.0,0 STARLINK-4013,1 52604U 22052G   22288.51557299  .00000148  00000-0  27404-4 0  9997,2 52604  53.2178  90.9519 0001956  41.1251 318.9888 15.08838227 23489,6917.886,95.438,541.104,538.398,0.0
52604.0,STARLINK-4013,PAYLOAD,2022-10-15 18:43:57,15.08844049,0.0001938,53.2179,89.7624,40.9657,319.1481,3.5774e-05,2.81e-06,0.0,0 STARLINK-4013,1 52604U 22052G   22288.78052856  .00000281  00000-0  35774-4 0  9992,2 52604  53.2179  89.7624 0001938  40.9657 319.1481 15.08844049 23896,6917.868,95.437,541.0740000000002,538.3919999999998,0.0
52604.0,STARLINK-4013,PAYLOAD,2022-10-16 10:37:50,15.08832576,0.0001909999999999,53.2182,86.7892,42.0265,318.0873,-0.00012781,-2.321e-05,0.0,0 STARLINK-4013,1 52604U 22052G   22289.44294005 -.00002321  00000-0 -12781-3 0  9991,2 52604  53.2182  86.7892 0001910  42.0265 318.0873 15.08832576 23998,6917.903,95.438,541.089,538.447,0.0
52604.0,STARLINK-4013,PAYLOAD,2022-10-16 12:13:13,15.08830359,0.0001958,53.2181,86.4919,41.9188,318.1953,-0.00018172,-3.178e-05,0.0,0 STARLINK-4013,1 52604U 22052G   22289.50918370 -.00003178  00000-0 -18172-3 0  9997,2 52604  53.2181  86.4919 0001958  41.9188 318.1953 15.08830359 23636,6917.91,95.438,541.129,538.42,0.0
52604.0,STARLINK-4013,PAYLOAD,2022-10-16 20:10:08,15.08833873,0.0001995,53.2182,85.0049,41.7215,318.3929,-0.00014905,-2.659e-05,0.0,0 STARLINK-4013,1 52604U 22052G   22289.84038177 -.00002659  00000-0 -14905-3 0  9995,2 52604  53.2182  85.0049 0001995  41.7215 318.3929 15.08833873 23680,6917.899,95.438,541.144,538.384,0.0
52604.0,STARLINK-4013,PAYLOAD,2022-10-17 10:28:36,15.08834139,0.0001976,53.2182,82.3287,40.5139,319.6,7.1101e-06,-1.75e-06,0.0,0 STARLINK-4013,1 52604U 22052G   22290.43653866 -.00000175  00000-0  71101-5 0  9993,2 52604  53.2182  82.3287 0001976  40.5139 319.6000 15.08834139 24147,6917.898,95.438,541.13,538.396,0.0
52604.0,STARLINK-4013,PAYLOAD,2022-10-17 13:39:23,15.08835467,0.0001991,53.2182,81.734,40.6637,319.4504,3.0385e-05,1.95e-06,0.0,0 STARLINK-4013,1 52604U 22052G   22290.56901744  .00000195  00000-0  30385-4 0  9997,2 52604  53.2182  81.7340 0001991  40.6637 319.4504 15.08835467 23793,6917.894,95.438,541.137,538.382,0.0
52604.0,STARLINK-4013,PAYLOAD,2022-10-17 20:00:55,15.08840421,0.0002003,53.2182,80.5447,41.0467,319.0676,4.3276e-05,4.01e-06,0.0,0 STARLINK-4013,1 52604U 22052G   22290.83397429  .00000401  00000-0  43276-4 0  9999,2 52604  53.2182  80.5447 0002003  41.0467 319.0676 15.08840421 23836,6917.879,95.438,541.13,538.3580000000002,0.0
52604.0,STARLINK-4013,PAYLOAD,2022-10-18 00:47:04,15.08846363,0.0002014,53.2183,79.6526,40.9891,319.1252,5.4902e-05,5.86e-06,0.0,0 STARLINK-4013,1 52604U 22052G   22291.03268983  .00000586  00000-0  54902-4 0  9996,2 52604  53.2183  79.6526 0002014  40.9891 319.1252 15.08846363 24232,6917.861,95.437,541.119,538.3330000000002,0.0
52604.0,STARLINK-4013,PAYLOAD,2022-10-18 08:44:00,15.088344,0.0002005999999999,53.2183,78.166,41.5111,318.6033,-9.7847e-07,-3.04e-06,0.0,0 STARLINK-4013,1 52604U 22052G   22291.36389896 -.00000304  00000-0 -97847-6 0  9996,2 52604  53.2183  78.1660 0002006  41.5111 318.6033 15.08834400 24283,6917.898,95.438,541.15,538.375,0.0
52604.0,STARLINK-4013,PAYLOAD,2022-10-18 11:54:47,15.08827311,0.000205,53.2184,77.5713,40.7139,319.4006,0.00010462,1.377e-05,0.0,0 STARLINK-4013,1 52604U 22052G   22291.49638031  .00001377  00000-0  10462-3 0  9992,2 52604  53.2184  77.5713 0002050  40.7139 319.4006 15.08827311 23939,6917.919,95.438,541.202,538.366,0.0
52604.0,STARLINK-4013,PAYLOAD,2022-10-18 19:51:43,15.08828832,0.0002075,53.2185,76.0847,40.8327,319.282,0.00010316,1.354e-05,0.0,0 STARLINK-4013,1 52604U 22052G   22291.82758151  .00001354  00000-0  10316-3 0  9998,2 52604  53.2185  76.0847 0002075  40.8327 319.2820 15.08828832 23985,6917.915,95.438,541.215,538.344,0.0
52604.0,STARLINK-4013,PAYLOAD,2022-10-18 21:27:06,15.08826212,0.0002104,53.2185,75.7875,37.0028,323.1109,6.8592e-05,8.03e-06,0.0,0 STARLINK-4013,1 52604U 22052G   22291.89382483  .00000803  00000-0  68592-4 0  9994,2 52604  53.2185  75.7875 0002104  37.0028 323.1109 15.08826212 24368,6917.9230000000025,95.438,541.243,538.332,0.0
